{
  "type": "FeatureCollection",
  "features": [
    {
      "type": "Feature",
      "properties": {
        "norad_id": 44231,
        "name": "BEIDOU-2 G8 (C01)",
        "group": "gnss",
        "lat": -1.1656303714518883,
        "lon": -62.647374476634674,
        "alt_km": 35757.29231661728,
        "timestamp": "2025-12-25T03:55:56.600146+00:00",
        "meta_object_name": "BEIDOU-2 G8 (C01)",
        "meta_object_id": "2019-027A",
        "meta_epoch": "2025-12-24T20:38:05.273664",
        "meta_mean_motion": 1.00274605,
        "meta_eccentricity": 0.0008294,
        "meta_inclination": 1.6907,
        "meta_ra_of_asc_node": 74.7361,
        "meta_arg_of_pericenter": 259.0299,
        "meta_mean_anomaly": 213.8933,
        "meta_ephemeris_type": 0,
        "meta_classification_type": "U",
        "meta_norad_cat_id": 44231,
        "meta_element_set_no": 999,
        "meta_rev_at_epoch": 2433,
        "meta_bstar": 0,
        "meta_mean_motion_dot": -2.26e-06,
        "meta_mean_motion_ddot": 0,
        "tle_line1": "1 44231U 19027A   25358.85978326 -.00000226  00000+0  00000+0 0  9993",
        "tle_line2": "2 44231   1.6907  74.7361 0008294 259.0299 213.8933  1.00274605 24332"
      },
      "geometry": {
        "type": "Point",
        "coordinates": [
          -62.647374476634674,
          -1.1656303714518883
        ]
      }
    },
    {
      "type": "Feature",
      "properties": {
        "norad_id": 44299,
        "name": "COSMOS 2534 (758)",
        "group": "gnss",
        "lat": -12.554330421188665,
        "lon": 24.619320481337706,
        "alt_km": 19131.873573025587,
        "timestamp": "2025-12-25T03:55:56.600158+00:00",
        "meta_object_name": "COSMOS 2534 (758)",
        "meta_object_id": "2019-030A",
        "meta_epoch": "2025-12-24T03:52:14.937600",
        "meta_mean_motion": 2.13102191,
        "meta_eccentricity": 0.00085971,
        "meta_inclination": 64.3662,
        "meta_ra_of_asc_node": 198.5079,
        "meta_arg_of_pericenter": 283.6548,
        "meta_mean_anomaly": 221.2586,
        "meta_ephemeris_type": 0,
        "meta_classification_type": "U",
        "meta_norad_cat_id": 44299,
        "meta_element_set_no": 999,
        "meta_rev_at_epoch": 5119,
        "meta_bstar": 0,
        "meta_mean_motion_dot": 9.8e-07,
        "meta_mean_motion_ddot": 0,
        "tle_line1": "1 44299U 19030A   25358.16128400  .00000098  00000+0  00000+0 0  9991",
        "tle_line2": "2 44299  64.3662 198.5079 0008597 283.6548 221.2586  2.13102191 51193"
      },
      "geometry": {
        "type": "Point",
        "coordinates": [
          24.619320481337706,
          -12.554330421188665
        ]
      }
    },
    {
      "type": "Feature",
      "properties": {
        "norad_id": 44337,
        "name": "BEIDOU-3 IGSO-2 (C39)",
        "group": "gnss",
        "lat": 49.82276444568921,
        "lon": -75.0445802282217,
        "alt_km": 35784.183112445055,
        "timestamp": "2025-12-25T03:55:56.600169+00:00",
        "meta_object_name": "BEIDOU-3 IGSO-2 (C39)",
        "meta_object_id": "2019-035A",
        "meta_epoch": "2025-12-24T20:30:50.966784",
        "meta_mean_motion": 1.00267539,
        "meta_eccentricity": 0.0037852,
        "meta_inclination": 55.2292,
        "meta_ra_of_asc_node": 160.3949,
        "meta_arg_of_pericenter": 202.5754,
        "meta_mean_anomaly": 157.6854,
        "meta_ephemeris_type": 0,
        "meta_classification_type": "U",
        "meta_norad_cat_id": 44337,
        "meta_element_set_no": 999,
        "meta_rev_at_epoch": 2392,
        "meta_bstar": 0,
        "meta_mean_motion_dot": -7e-07,
        "meta_mean_motion_ddot": 0,
        "tle_line1": "1 44337U 19035A   25358.85475656 -.00000070  00000+0  00000+0 0  9994",
        "tle_line2": "2 44337  55.2292 160.3949 0037852 202.5754 157.6854  1.00267539 23925"
      },
      "geometry": {
        "type": "Point",
        "coordinates": [
          -75.0445802282217,
          49.82276444568921
        ]
      }
    },
    {
      "type": "Feature",
      "properties": {
        "norad_id": 44506,
        "name": "GPS BIII-2  (PRN 18)",
        "group": "gnss",
        "lat": 9.388653513308014,
        "lon": -15.479076226543521,
        "alt_km": 20332.905774814695,
        "timestamp": "2025-12-25T03:55:56.600196+00:00",
        "meta_object_name": "GPS BIII-2  (PRN 18)",
        "meta_object_id": "2019-056A",
        "meta_epoch": "2025-12-24T09:26:38.145120",
        "meta_mean_motion": 2.00566563,
        "meta_eccentricity": 0.005776,
        "meta_inclination": 55.7172,
        "meta_ra_of_asc_node": 338.0907,
        "meta_arg_of_pericenter": 198.6314,
        "meta_mean_anomaly": 336.4409,
        "meta_ephemeris_type": 0,
        "meta_classification_type": "U",
        "meta_norad_cat_id": 44506,
        "meta_element_set_no": 999,
        "meta_rev_at_epoch": 4656,
        "meta_bstar": 0,
        "meta_mean_motion_dot": -6e-07,
        "meta_mean_motion_ddot": 0,
        "tle_line1": "1 44506U 19056A   25358.39349705 -.00000060  00000+0  00000+0 0  9998",
        "tle_line2": "2 44506  55.7172 338.0907 0057760 198.6314 336.4409  2.00566563 46568"
      },
      "geometry": {
        "type": "Point",
        "coordinates": [
          -15.479076226543521,
          9.388653513308014
        ]
      }
    },
    {
      "type": "Feature",
      "properties": {
        "norad_id": 44542,
        "name": "BEIDOU-3 M24 (C46)",
        "group": "gnss",
        "lat": -50.02098762499724,
        "lon": 129.86681473215776,
        "alt_km": 21536.877295514456,
        "timestamp": "2025-12-25T03:55:56.600223+00:00",
        "meta_object_name": "BEIDOU-3 M24 (C46)",
        "meta_object_id": "2019-061A",
        "meta_epoch": "2025-12-24T04:40:53.254848",
        "meta_mean_motion": 1.86229374,
        "meta_eccentricity": 0.0009588,
        "meta_inclination": 54.4008,
        "meta_ra_of_asc_node": 188.6295,
        "meta_arg_of_pericenter": 26.2162,
        "meta_mean_anomaly": 333.8692,
        "meta_ephemeris_type": 0,
        "meta_classification_type": "U",
        "meta_norad_cat_id": 44542,
        "meta_element_set_no": 999,
        "meta_rev_at_epoch": 4253,
        "meta_bstar": 0,
        "meta_mean_motion_dot": 1.02e-06,
        "meta_mean_motion_ddot": 0,
        "tle_line1": "1 44542U 19061A   25358.19506082  .00000102  00000+0  00000+0 0  9991",
        "tle_line2": "2 44542  54.4008 188.6295 0009588  26.2162 333.8692  1.86229374 42530"
      },
      "geometry": {
        "type": "Point",
        "coordinates": [
          129.86681473215776,
          -50.02098762499724
        ]
      }
    },
    {
      "type": "Feature",
      "properties": {
        "norad_id": 44543,
        "name": "BEIDOU-3 M23 (C45)",
        "group": "gnss",
        "lat": -17.971485296877432,
        "lon": 22.011225236986267,
        "alt_km": 21547.725442120307,
        "timestamp": "2025-12-25T03:55:56.600236+00:00",
        "meta_object_name": "BEIDOU-3 M23 (C45)",
        "meta_object_id": "2019-061B",
        "meta_epoch": "2025-12-24T01:09:49.421952",
        "meta_mean_motion": 1.86227524,
        "meta_eccentricity": 0.00060474,
        "meta_inclination": 54.3997,
        "meta_ra_of_asc_node": 188.6027,
        "meta_arg_of_pericenter": 26.1168,
        "meta_mean_anomaly": 148.3907,
        "meta_ephemeris_type": 0,
        "meta_classification_type": "U",
        "meta_norad_cat_id": 44543,
        "meta_element_set_no": 999,
        "meta_rev_at_epoch": 4253,
        "meta_bstar": 0,
        "meta_mean_motion_dot": 1.01e-06,
        "meta_mean_motion_ddot": 0,
        "tle_line1": "1 44543U 19061B   25358.04848868  .00000101  00000+0  00000+0 0  9996",
        "tle_line2": "2 44543  54.3997 188.6027 0006047  26.1168 148.3907  1.86227524 42535"
      },
      "geometry": {
        "type": "Point",
        "coordinates": [
          22.011225236986267,
          -17.971485296877432
        ]
      }
    },
    {
      "type": "Feature",
      "properties": {
        "norad_id": 44624,
        "name": "EUTELSAT 5 WEST B (EGNOS/PRN 121)",
        "group": "gnss",
        "lat": 0.02936332705769038,
        "lon": 147.87887265674888,
        "alt_km": 35793.72951320127,
        "timestamp": "2025-12-25T03:55:56.600247+00:00",
        "meta_object_name": "EUTELSAT 5 WEST B (EGNOS/PRN 121)",
        "meta_object_id": "2019-067A",
        "meta_epoch": "2025-12-24T16:29:59.033184",
        "meta_mean_motion": 1.00271313,
        "meta_eccentricity": 0.0003125,
        "meta_inclination": 0.0635,
        "meta_ra_of_asc_node": 343.2156,
        "meta_arg_of_pericenter": 289.3111,
        "meta_mean_anomaly": 63.4298,
        "meta_ephemeris_type": 0,
        "meta_classification_type": "U",
        "meta_norad_cat_id": 44624,
        "meta_element_set_no": 999,
        "meta_rev_at_epoch": 2268,
        "meta_bstar": 0,
        "meta_mean_motion_dot": -2.1e-07,
        "meta_mean_motion_ddot": 0,
        "tle_line1": "1 44624U 19067A   25358.68748881 -.00000021  00000+0  00000+0 0  9998",
        "tle_line2": "2 44624   0.0635 343.2156 0003125 289.3111  63.4298  1.00271313 22684"
      },
      "geometry": {
        "type": "Point",
        "coordinates": [
          147.87887265674888,
          0.02936332705769038
        ]
      }
    }
  ]
}